BEIDOU-2 IGSO-1 (C06)   
1 36828U 10036A   23207.86143287 -.00000075  00000+0  00000+0 0  9991
2 36828  54.2375 172.5289 0036946 190.7461   0.2881  1.00265176 47610
BEIDOU-2 G4 (C04)       
1 37210U 10057A   23208.04880667 -.00000099  00000+0  00000+0 0  9997
2 37210   1.0908  58.7987 0004160 139.8106 283.4027  1.00270449 46694
BEIDOU-2 IGSO-2 (C07)   
1 37256U 10068A   23208.08043510 -.00000185  00000+0  00000+0 0  9997
2 37256  49.4795 284.7835 0031784 210.3127 304.1441  1.00296698 46197
BEIDOU-2 IGSO-3 (C08)   
1 37384U 11013A   23208.34640034 -.00000166  00000+0  00000+0 0  9992
2 37384  60.8797  50.2743 0027072 173.8878 311.8746  1.00291726 45080
BEIDOU-2 IGSO-4 (C09)   
1 37763U 11038A   23207.74719073  .00000025  00000+0  00000+0 0  9996
2 37763  54.5115 175.0666 0112040 228.5439 264.4876  1.00282318 44056
BEIDOU-2 IGSO-5 (C10)   
1 37948U 11073A   23208.07651959 -.00000142  00000+0  00000+0 0  9996
2 37948  49.6042 284.4499 0094154 219.7248 283.5320  1.00281935 42811
BEIDOU-2 G5 (C05)       
1 38091U 12008A   23207.80130142  .00000071  00000+0  00000+0 0  9991
2 38091   1.6166  67.6823 0000470 237.1025 346.5502  1.00271164 41772
BEIDOU-2 M3 (C11)       
1 38250U 12018A   23207.46358699 -.00000080  00000+0  00000+0 0  9991
2 38250  56.5338 340.1961 0021687 255.1946 104.5730  1.86231165 76264
BEIDOU-2 M4 (C12)       
1 38251U 12018B   23207.93214189 -.00000080  00000+0  00000+0 0  9999
2 38251  56.4447 339.4766 0012577 254.9687 104.8998  1.86231857 76612
BEIDOU-2 M6 (C14)       
1 38775U 12050B   23208.17915999 -.00000031  00000+0  00000+0 0  9996
2 38775  55.6616  98.0816 0013065 335.9648  24.0263  1.86231254 73993
BEIDOU-2 G6 (C02)       
1 38953U 12059A   23207.82320715 -.00000163  00000+0  00000+0 0  9996
2 38953   1.9296  82.2915 0009275 321.9454 280.3941  1.00273151 39318
BEIDOU-3S IGSO-1S (C31) 
1 40549U 15019A   23208.12214688 -.00000184  00000+0  00000+0 0  9997
2 40549  51.1723 308.0351 0040115 193.8220 302.5654  1.00264777 30494
BEIDOU-3S M2S (C57)     
1 40748U 15037A   23207.59832293 -.00000082  00000+0  00000+0 0  9993
2 40748  55.6866 338.1118 0009470 238.0908 121.8259  1.86233131 54449
BEIDOU-3S M1S (C58)     
1 40749U 15037B   23207.86836502 -.00000081  00000+0  00000+0 0  9990
2 40749  55.6894 338.0888 0002390 335.5581  24.4389  1.86232903 54446
BEIDOU-3S IGSO-2S (C56) 
1 40938U 15053A   23208.07796867 -.00000100  00000+0  00000+0 0  9993
2 40938  50.8685 271.2039 0047507 193.4605 322.0601  1.00292019 28753
BEIDOU-2 IGSO-6 (C13)   
1 41434U 16021A   23207.27364330 -.00000143  00000+0  00000+0 0  9995
2 41434  58.6910  48.6742 0046226 218.2921 230.1247  1.00290908 26885
BEIDOU-2 G7 (C03)       
1 41586U 16037A   23208.17552646 -.00000340  00000+0  00000+0 0  9998
2 41586   1.7784  67.8396 0007672 353.8732  56.4899  1.00265137 26199
BEIDOU-3 M1 (C19)       
1 43001U 17069A   23207.94554920 -.00000031  00000+0  00000+0 0  9996
2 43001  55.8128  98.1440 0009436 303.0091  56.9523  1.86231629 38934
BEIDOU-3 M2 (C20)       
1 43002U 17069B   23207.34523740 -.00000030  00000+0  00000+0 0  9996
2 43002  55.8121  98.1993 0007868 328.9557  31.0503  1.86231154 38914
BEIDOU-3 M7 (C27)       
1 43107U 18003A   23206.55932504 -.00000083  00000+0  00000+0 0  9993
2 43107  55.1429 338.8812 0004569  76.2556 283.8045  1.86232529 37650
BEIDOU-3 M8 (C28)       
1 43108U 18003B   23207.57099753 -.00000082  00000+0  00000+0 0  9996
2 43108  55.1353 338.8338 0002962 238.9629 121.0168  1.86230935 37684
BEIDOU-3 M4 (C22)       
1 43207U 18018A   23207.47660017 -.00000030  00000+0  00000+0 0  9991
2 43207  55.7714  98.2600 0005863 358.0876   1.9624  1.86231555 37065
BEIDOU-3 M3 (C21)       
1 43208U 18018B   23207.00627589 -.00000029  00000+0  00000+0 0  9996
2 43208  55.7705  98.2801 0007520 317.0074  42.9866  1.86231453 37055
BEIDOU-3 M9 (C29)       
1 43245U 18029A   23207.76626195 -.00000082  00000+0  00000+0 0  9993
2 43245  55.0383 336.5780 0000879 159.3300 200.6830  1.86232651 36227
BEIDOU-3 M10 (C30)      
1 43246U 18029B   23207.69636665 -.00000082  00000+0  00000+0 0  9999
2 43246  55.0352 336.6086 0003103  14.6735 345.3450  1.86232954 36201
BEIDOU-2 IGSO-7 (C16)   
1 43539U 18057A   23208.47626574 -.00000080  00000+0  00000+0 0  9998
2 43539  55.1222 172.1995 0064976 232.0275 183.2234  1.00295565 18577
BEIDOU-3 M5 (C23)       
1 43581U 18062A   23208.45382886  .00000119  00000+0  00000+0 0  9996
2 43581  54.1841 218.2394 0005799 273.5713  86.4058  1.86231919 33976
BEIDOU-3 M6 (C24)       
1 43582U 18062B   23207.24537449  .00000113  00000+0  00000+0 0  9994
2 43582  54.1842 218.2701 0004568 345.9722  14.0557  1.86229671 33958
BEIDOU-3 M12 (C26)      
1 43602U 18067A   23207.71901786  .00000117  00000+0  00000+0 0  9997
2 43602  54.2711 216.9051 0006625   8.8907 351.1607  1.86231659 33440
BEIDOU-3 M11 (C25)      
1 43603U 18067B   23208.38978120  .00000120  00000+0  00000+0 0  9992
2 43603  54.2683 216.8480 0003868 350.1904   9.8432  1.86231571 33480
BEIDOU-3 M13 (C32)      
1 43622U 18072A   23207.27438052 -.00000030  00000+0  00000+0 0  9992
2 43622  55.7406  97.8075 0006070 302.1374  57.8568  1.86231691 32972
BEIDOU-3 M14 (C33)      
1 43623U 18072B   23208.21373911 -.00000031  00000+0  00000+0 0  9991
2 43623  55.7431  97.7686 0004468 335.1618  24.8691  1.86231688 32993
BEIDOU-3 M16 (C35)      
1 43647U 18078A   23207.83821048 -.00000082  00000+0  00000+0 0  9995
2 43647  54.9339 336.7006 0006462  17.2684 342.7627  1.86227277 32491
BEIDOU-3 M15 (C34)      
1 43648U 18078B   23207.96988544 -.00000082  00000+0  00000+0 0  9995
2 43648  54.9296 336.7002 0003603  35.5138 324.5192  1.86232263 32510
BEIDOU-3 G1 (C59)       
1 43683U 18085A   23206.59182659 -.00000264  00000+0  00000+0 0  9995
2 43683   1.4270 127.3178 0003461 338.3446 190.4971  1.00271339 17458
BEIDOU-3 M17 (C36)      
1 43706U 18093A   23207.58134781  .00000116  00000+0  00000+0 0  9998
2 43706  54.2667 218.1836 0010847 276.5618  83.3561  1.86232045 31861
BEIDOU-3 M18 (C37)      
1 43707U 18093B   23207.44683786  .00000115  00000+0  00000+0 0  9997
2 43707  54.2675 218.1796 0008798 299.5032  60.4501  1.86229837 31857
BEIDOU-3 IGSO-1 (C38)   
1 44204U 19023A   23208.34307808 -.00000203  00000+0  00000+0 0  9991
2 44204  57.1581  48.6545 0022743 194.3851 303.2415  1.00294298 15777
BEIDOU-2 G8 (C01)       
1 44231U 19027A   23208.44859736 -.00000234  00000+0  00000+0 0  9992
2 44231   1.8575  81.2435 0005213 120.2583  49.3696  1.00273741 15487
BEIDOU-3 IGSO-2 (C39)   
1 44337U 19035A   23208.46686993 -.00000092  00000+0  00000+0 0  9995
2 44337  55.1543 168.1346 0033225 198.4686 225.1485  1.00286879 15118
BEIDOU-3 M24 (C46)      
1 44542U 19061A   23207.51887304  .00000116  00000+0  00000+0 0  9992
2 44542  54.4940 218.4071 0008114 332.9078  27.0916  1.86231402 26118
BEIDOU-3 M23 (C45)      
1 44543U 19061B   23207.98925927  .00000119  00000+0  00000+0 0  9991
2 44543  54.4923 218.3609 0005933 314.2233 272.9924  1.86231742 26115
BEIDOU-3 IGSO-3 (C40)   
1 44709U 19073A   23207.63928155 -.00000188  00000+0  00000+0 0  9993
2 44709  56.5989 292.1704 0034870 187.6303 172.3933  1.00294296 13862
BEIDOU-3 M22 (C44)      
1 44793U 19078A   23207.90096350 -.00000082  00000+0  00000+0 0  9997
2 44793  54.7826 336.6705 0005506  27.0762 332.9617  1.86232234 24986
BEIDOU-3 M21 (C43)      
1 44794U 19078B   23208.03162550 -.00000082  00000+0  00000+0 0  9999
2 44794  54.7561 336.6490 0003349  25.3722 334.6533  1.86232677 24981
BEIDOU-3 M19 (C41)      
1 44864U 19090A   23208.46421020 -.00000031  00000+0  00000+0 0  9992
2 44864  55.6758  97.9572 0016639 278.1210 205.8208  1.86231840 24564
BEIDOU-3 M20 (C42)      
1 44865U 19090B   23207.38712625 -.00000030  00000+0  00000+0 0  9996
2 44865  55.6768  98.0260 0014773 292.6469 278.9533  1.86231850 24536
BEIDOU-3 G2 (C60)       
1 45344U 20017A   23207.82013154 -.00000127  00000+0  00000+0 0  9997
2 45344   2.0263  14.0845 0003384 123.4342 182.0169  1.00271051 12663
BEIDOU-3 G3 (C61)       
1 45807U 20040A   23207.88094876 -.00000338  00000+0  00000+0 0  9997
2 45807   0.6562 336.0496 0005229  16.5630  19.3579  1.00271280 11484
BEIDOU-3 G4             
1 56564U 23066A   23208.46166448 -.00000094  00000+0  00000+0 0  9999
2 56564   2.9414 288.9878 0007396 198.7907 143.2597  1.00270479   814
